{
  "links" : {
    "next" : "https://api.nasa.gov/neo/rest/v1/feed?start_date=2002-12-23&end_date=2002-12-23&detailed=true&api_key=t0TVs3DtDT2H8Oy2Zy8m2eVrNsAVKAexjcZXUckd",
    "prev" : "https://api.nasa.gov/neo/rest/v1/feed?start_date=2002-12-21&end_date=2002-12-21&detailed=true&api_key=t0TVs3DtDT2H8Oy2Zy8m2eVrNsAVKAexjcZXUckd",
    "self" : "https://api.nasa.gov/neo/rest/v1/feed?start_date=2002-12-22&end_date=2002-12-22&detailed=true&api_key=t0TVs3DtDT2H8Oy2Zy8m2eVrNsAVKAexjcZXUckd"
  },
  "element_count" : 8,
  "near_earth_objects" : {
    "2002-12-22" : [ {
      "links" : {
        "self" : "https://api.nasa.gov/neo/rest/v1/neo/3025766?api_key=t0TVs3DtDT2H8Oy2Zy8m2eVrNsAVKAexjcZXUckd"
      },
      "neo_reference_id" : "3025766",
      "name" : "(2000 AA6)",
      "nasa_jpl_url" : "http://ssd.jpl.nasa.gov/sbdb.cgi?sstr=3025766",
      "absolute_magnitude_h" : 22.1,
      "estimated_diameter" : {
        "kilometers" : {
          "estimated_diameter_min" : 0.1010543415,
          "estimated_diameter_max" : 0.2259643771
        },
        "meters" : {
          "estimated_diameter_min" : 101.054341542,
          "estimated_diameter_max" : 225.9643771094
        },
        "miles" : {
          "estimated_diameter_min" : 0.0627922373,
          "estimated_diameter_max" : 0.140407711
        },
        "feet" : {
          "estimated_diameter_min" : 331.5431259047,
          "estimated_diameter_max" : 741.3529669956
        }
      },
      "is_potentially_hazardous_asteroid" : true,
      "close_approach_data" : [ {
        "close_approach_date" : "2002-12-22",
        "epoch_date_close_approach" : 1040544000000,
        "relative_velocity" : {
          "kilometers_per_second" : "30.1699876617",
          "kilometers_per_hour" : "108611.9555820196",
          "miles_per_hour" : "67487.2454003943"
        },
        "miss_distance" : {
          "astronomical" : "0.459730518",
          "lunar" : "178.8351593018",
          "kilometers" : "68774704",
          "miles" : "42734620"
        },
        "orbiting_body" : "Earth"
      } ],
      "orbital_data" : {
        "orbit_id" : "24",
        "orbit_determination_date" : "2017-04-06 09:17:11",
        "orbit_uncertainty" : "0",
        "minimum_orbit_intersection" : ".00767126",
        "jupiter_tisserand_invariant" : "4.894",
        "epoch_osculation" : "2458000.5",
        "eccentricity" : ".5194540869703551",
        "semi_major_axis" : "1.2865451823245",
        "inclination" : "2.031544612122285",
        "ascending_node_longitude" : "279.8360421373115",
        "orbital_period" : "533.0107782097747",
        "perihelion_distance" : ".6182440292940176",
        "perihelion_argument" : "287.5722268219922",
        "aphelion_distance" : "1.954846335354981",
        "perihelion_time" : "2458011.875329632395",
        "mean_anomaly" : "352.317005893546",
        "mean_motion" : ".6754084808737515",
        "equinox" : "J2000"
      }
    }, {
      "links" : {
        "self" : "https://api.nasa.gov/neo/rest/v1/neo/3276398?api_key=t0TVs3DtDT2H8Oy2Zy8m2eVrNsAVKAexjcZXUckd"
      },
      "neo_reference_id" : "3276398",
      "name" : "(2005 GE60)",
      "nasa_jpl_url" : "http://ssd.jpl.nasa.gov/sbdb.cgi?sstr=3276398",
      "absolute_magnitude_h" : 22.1,
      "estimated_diameter" : {
        "kilometers" : {
          "estimated_diameter_min" : 0.1010543415,
          "estimated_diameter_max" : 0.2259643771
        },
        "meters" : {
          "estimated_diameter_min" : 101.054341542,
          "estimated_diameter_max" : 225.9643771094
        },
        "miles" : {
          "estimated_diameter_min" : 0.0627922373,
          "estimated_diameter_max" : 0.140407711
        },
        "feet" : {
          "estimated_diameter_min" : 331.5431259047,
          "estimated_diameter_max" : 741.3529669956
        }
      },
      "is_potentially_hazardous_asteroid" : false,
      "close_approach_data" : [ {
        "close_approach_date" : "2002-12-22",
        "epoch_date_close_approach" : 1040544000000,
        "relative_velocity" : {
          "kilometers_per_second" : "9.2270186166",
          "kilometers_per_hour" : "33217.2670197637",
          "miles_per_hour" : "20639.9179434748"
        },
        "miss_distance" : {
          "astronomical" : "0.0757704541",
          "lunar" : "29.4747066498",
          "kilometers" : "11335098",
          "miles" : "7043303.5"
        },
        "orbiting_body" : "Earth"
      } ],
      "orbital_data" : {
        "orbit_id" : "19",
        "orbit_determination_date" : "2017-04-06 09:11:07",
        "orbit_uncertainty" : "4",
        "minimum_orbit_intersection" : ".00469688",
        "jupiter_tisserand_invariant" : "6.256",
        "epoch_osculation" : "2458000.5",
        "eccentricity" : ".245748510921474",
        "semi_major_axis" : ".9586055789637062",
        "inclination" : "5.570152515847995",
        "ascending_node_longitude" : "229.9019032870426",
        "orbital_period" : "342.8138465778937",
        "perihelion_distance" : ".7230296853723579",
        "perihelion_argument" : "112.7702162941976",
        "aphelion_distance" : "1.194181472555055",
        "perihelion_time" : "2458044.213674550200",
        "mean_anomaly" : "314.0948447819005",
        "mean_motion" : "1.050132611601502",
        "equinox" : "J2000"
      }
    }, {
      "links" : {
        "self" : "https://api.nasa.gov/neo/rest/v1/neo/3309832?api_key=t0TVs3DtDT2H8Oy2Zy8m2eVrNsAVKAexjcZXUckd"
      },
      "neo_reference_id" : "3309832",
      "name" : "(2005 YO128)",
      "nasa_jpl_url" : "http://ssd.jpl.nasa.gov/sbdb.cgi?sstr=3309832",
      "absolute_magnitude_h" : 24.6,
      "estimated_diameter" : {
        "kilometers" : {
          "estimated_diameter_min" : 0.0319561887,
          "estimated_diameter_max" : 0.0714562102
        },
        "meters" : {
          "estimated_diameter_min" : 31.9561886721,
          "estimated_diameter_max" : 71.4562101727
        },
        "miles" : {
          "estimated_diameter_min" : 0.0198566489,
          "estimated_diameter_max" : 0.0444008168
        },
        "feet" : {
          "estimated_diameter_min" : 104.8431420431,
          "estimated_diameter_max" : 234.436392583
        }
      },
      "is_potentially_hazardous_asteroid" : false,
      "close_approach_data" : [ {
        "close_approach_date" : "2002-12-22",
        "epoch_date_close_approach" : 1040544000000,
        "relative_velocity" : {
          "kilometers_per_second" : "9.181942559",
          "kilometers_per_hour" : "33054.9932123556",
          "miles_per_hour" : "20539.0873101995"
        },
        "miss_distance" : {
          "astronomical" : "0.132173224",
          "lunar" : "51.4153862",
          "kilometers" : "19772834",
          "miles" : "12286269"
        },
        "orbiting_body" : "Earth"
      } ],
      "orbital_data" : {
        "orbit_id" : "10",
        "orbit_determination_date" : "2017-04-06 09:09:32",
        "orbit_uncertainty" : "7",
        "minimum_orbit_intersection" : ".0155322",
        "jupiter_tisserand_invariant" : "7.069",
        "epoch_osculation" : "2458000.5",
        "eccentricity" : ".296629837089032",
        "semi_major_axis" : ".8210005095448185",
        "inclination" : "15.59032967559832",
        "ascending_node_longitude" : "281.7446315157346",
        "orbital_period" : "271.7149703413027",
        "perihelion_distance" : ".5774672621485268",
        "perihelion_argument" : "328.4076682203353",
        "aphelion_distance" : "1.06453375694111",
        "perihelion_time" : "2457909.980699012466",
        "mean_anomaly" : "119.930632878195",
        "mean_motion" : "1.324917797307237",
        "equinox" : "J2000"
      }
    } ]
  }
}